IRIDIUM 7               
1 24793U 97020B   24196.62720428  .00000755  00000+0  25688-3 0  9994
2 24793  86.3979 318.3393 0002264  99.2653 260.8799 14.35290604423461
IRIDIUM 5               
1 24795U 97020D   24196.58371290  .00004166  00000+0  39414-3 0  9992
2 24795  86.3907 238.5535 0118422 264.7872  93.9831 14.88167227435143
IRIDIUM 4               
1 24796U 97020E   24196.82537816  .00000791  00000+0  26456-3 0  9990
2 24796  86.3974 315.3567 0002066  97.3349 262.8082 14.36218275424069
IRIDIUM 914             
1 24836U 97030A   24196.64294876  .00000909  00000+0  28209-3 0  9991
2 24836  86.3959 325.0337 0000734 144.1736 215.9512 14.40085082558531
IRIDIUM 16              
1 24841U 97030F   24196.51992429  .00000877  00000+0  28373-3 0  9998
2 24841  86.4055 347.1303 0004280  93.1812 266.9876 14.37972728418465
IRIDIUM 911             
1 24842U 97030G   24196.49110528  .00001201  00000+0  32695-3 0  9992
2 24842  86.4480 346.2446 0015717 137.4435 222.7989 14.46632298426241
IRIDIUM 17              
1 24870U 97034B   24196.57590909  .00000799  00000+0  26262-3 0  9995
2 24870  86.3961  16.6862 0003392  67.7518 292.4039 14.37063462415089
IRIDIUM 920             
1 24871U 97034C   24196.51399914  .00000840  00000+0  25630-3 0  9998
2 24871  86.3990 356.7322 0013546 112.2985 247.9652 14.40781816417944
